SL-14 R/B               
1 21423U 91042B   26050.99834713  .00000381  00000+0  45214-4 0  9996
2 21423  82.4896 236.7747 0015738 302.0814  57.8871 14.81810396850458
ERS-1                   
1 21574U 91050A   26051.04145122  .00000255  00000+0  96435-4 0  9999
2 21574  98.7893  68.8322 0030923 254.1244 105.6533 14.39434197813193
ARIANE 40 R/B           
1 21610U 91050F   26051.13437606  .00000248  00000+0  86725-4 0  9994
2 21610  98.2052 104.0265 0004244 119.6205 240.5408 14.42879810816466
INTERCOSMOS 25          
1 21819U 91086A   26051.15513140  .00000768  00000+0  14505-3 0  9997
2 21819  82.6080 320.6043 1487005 154.7041 213.5120 12.11947016494566
SL-8 R/B                
1 21876U 92008B   26051.13467317  .00000028  00000+0  13112-4 0  9990
2 21876  82.9245 280.8395 0034564 181.6128 290.9168 13.75970058707004
SL-8 R/B                
1 21938U 92020B   26051.30090165  .00000096  00000+0  84297-4 0  9992
2 21938  82.9341 166.6678 0028501 348.9171  39.3917 13.75547147698741
USA 81                  
1 21949U 92023A   26051.19433428  .00000191  00000+0  63378-4 0  9990
2 21949  85.0114 141.5307 0002742  93.5954 266.5552 14.32361456 92284
COSMOS 2219             
1 22219U 92076A   26051.19011674  .00000272  00000+0  16730-3 0  9993
2 22219  71.0588  54.6510 0019835 230.4820 129.4550 14.14080253715909
SL-16 R/B               
1 22220U 92076B   26050.91476292 -.00000041  00000+0  33949-5 0  9993
2 22220  70.9977 225.8151 0011117 128.9964 339.7536 14.16854669719310
COSMOS 2221             
1 22236U 92080A   26051.18182486  .00001532  00000+0  13375-3 0  9998
2 22236  82.5038 295.8511 0012866 250.5123 109.4709 14.96128335778177
SL-16 R/B               
1 22285U 92093B   26051.21331668  .00000294  00000+0  17485-3 0  9998
2 22285  71.0216  40.9528 0005647 312.4293  47.6352 14.15446192710688
COSMOS 2228             
1 22286U 92094A   26051.20967276  .00001603  00000+0  13627-3 0  9998
2 22286  82.5146 254.0502 0018157   5.4098 354.7316 14.97099924773442
